{
  "norad_id": 47400,
  "name": "STARLINK-2122",
  "history": [
    {
      "epoch": "2026-03-28T19:45:54.706176",
      "apogee_km": 475.88066019111557,
      "perigee_km": 474.46791860191934,
      "latitude_deg": -40.675630976897395,
      "longitude_deg": 79.06078464002348,
      "semi_major_axis_km": 6853.311289396517,
      "eccentricity": 0.00010307,
      "inclination_deg": 53.1573,
      "raan_deg": 284.6326,
      "arg_perigee_deg": 99.0365,
      "mean_anomaly_deg": 261.0752,
      "mean_motion_rev_day": 15.30213658
    }
  ]
}